MTI                     
1 26102U 00014A   16092.41872711  .00007106  00000-0  16990-3 0  9997
2 26102  97.5248 240.2824 0010376  73.2673 347.4468 15.41757424886339
CFESAT                  
1 30777U 07006F   16092.12275501  .00005308  00000-0  19304-3 0  9994
2 30777  35.4261   2.6813 0004265 314.4320  45.6055 15.27702669500275
SPIRALE A               
1 33751U 09008C   16091.45026009  .00000129  00000-0  17396-3 0  9990
2 33751   2.0420 239.6537 5568707 284.9377  22.0706  4.58571524 90526
SPIRALE B               
1 33752U 09008D   16089.39163045  .00008901  00000-0  16578-2 0  9999
2 33752   1.8530 224.6193 6997333 306.5598   7.5728  2.65272919 62945
SAPPHIRE                
1 39088U 13009C   16092.18915269  .00000003  00000-0  16833-4 0  9998
2 39088  98.5884 293.0513 0011752 159.2214 200.9450 14.34093685162029
